[Satellite]
VERSION=1.1
NAME=IRIDIUM 102 [+]
NICKNAME=IRIDIUM 102 [+]
TLE1=1 41920U 17003D   19317.55515677  .00000098  00000-0  28027-4 0  9999
TLE2=2 41920  86.4001  14.5289 0002418  91.0073 269.1400 14.34215671148190
STATUS=0
